NORAD_CAT_ID,OBJECT_NAME,OBJECT_TYPE,EPOCH,MEAN_MOTION,ECCENTRICITY,INCLINATION,RA_OF_ASC_NODE,ARG_OF_PERICENTER,MEAN_ANOMALY,BSTAR,MEAN_MOTION_DOT,MEAN_MOTION_DDOT,TLE_LINE0,TLE_LINE1,TLE_LINE2,SEMIMAJOR_AXIS,PERIOD,APOGEE,PERIGEE,DECAYED
53025.0,STARLINK-4218,PAYLOAD,2024-02-09 19:27:43,15.08840277,0.0001342,53.2166,250.8566,90.6969,269.4177,6.2033e-05,6.99e-06,0.0,0 STARLINK-4218,1 53025U 22076AR  24040.81092560  .00000699  00000-0  62033-4 0  9995,2 53025  53.2166 250.8566 0001342  90.6969 269.4177 15.08840277 88892,6917.88,95.438,540.673,538.816,0.0
53025.0,STARLINK-4218,PAYLOAD,2024-02-09 22:38:30,15.08841898,0.0001352,53.2168,250.2621,90.4982,269.6165,7.2624e-05,8.68e-06,0.0,0 STARLINK-4218,1 53025U 22076AR  24040.94340425  .00000868  00000-0  72624-4 0  9990,2 53025  53.2168 250.2621 0001352  90.4982 269.6165 15.08841898 88444,6917.875,95.437,540.675,538.804,0.0
53025.0,STARLINK-4218,PAYLOAD,2024-02-10 20:53:54,15.08834812,0.0001351,53.2172,246.1039,91.4304,268.6843,7.2362e-06,-1.73e-06,0.0,0 STARLINK-4218,1 53025U 22076AR  24041.87077462 -.00000173  00000-0  72362-5 0  9991,2 53025  53.2172 246.1039 0001351  91.4304 268.6843 15.08834812 89052,6917.896,95.438,540.696,538.827,0.0
53025.0,STARLINK-4218,PAYLOAD,2024-02-10 22:29:18,15.08835145,0.000136,53.2172,245.8067,93.0142,267.1006,9.6539e-06,-1.34e-06,0.0,0 STARLINK-4218,1 53025U 22076AR  24041.93701442 -.00000134  00000-0  96539-5 0  9999,2 53025  53.2172 245.8067 0001360  93.0142 267.1006 15.08835145 88590,6917.895,95.438,540.701,538.819,0.0
53025.0,STARLINK-4218,PAYLOAD,2024-02-11 12:47:45,15.08843315,0.000122,53.2166,243.1278,90.6647,269.4485,3.4938e-05,2.68e-06,0.0,0 STARLINK-4218,1 53025U 22076AR  24042.53316889  .00000268  00000-0  34938-4 0  9994,2 53025  53.2166 243.1278 0001220  90.6647 269.4485 15.08843315 88680,6917.87,95.437,540.579,538.891,0.0
53025.0,STARLINK-4218,PAYLOAD,2024-02-11 20:44:40,15.08848966,0.0001359,53.2169,241.6419,80.222,279.8926,0.00010783,1.429e-05,0.0,0 STARLINK-4218,1 53025U 22076AR  24042.86436169  .00001429  00000-0  10783-3 0  9995,2 53025  53.2169 241.6419 0001359  80.2220 279.8926 15.08848966 89209,6917.853,95.437,540.658,538.778,0.0
53025.0,STARLINK-4218,PAYLOAD,2024-02-12 19:00:05,15.08837351,0.0001223,53.2162,237.4782,83.9969,276.1162,3.5507e-05,2.77e-06,0.0,0 STARLINK-4218,1 53025U 22076AR  24043.79173308  .00000277  00000-0  35507-4 0  9993,2 53025  53.2162 237.4782 0001223  83.9969 276.1162 15.08837351 89341,6917.888,95.438,540.6,538.907,0.0
53025.0,STARLINK-4218,PAYLOAD,2024-02-12 22:10:51,15.08838088,0.0001269,53.2166,236.8829,85.9395,274.1743,4.2807e-05,3.93e-06,0.0,0 STARLINK-4218,1 53025U 22076AR  24043.92421214  .00000393  00000-0  42807-4 0  9990,2 53025  53.2166 236.8829 0001269  85.9395 274.1743 15.08838088 88895,6917.886,95.438,540.629,538.873,0.0
53025.0,STARLINK-4218,PAYLOAD,2024-02-13 12:29:20,15.08840489,0.0001278,53.2168,234.2065,91.166,268.9479,2.6975e-05,1.41e-06,0.0,0 STARLINK-4218,1 53025U 22076AR  24044.52037171  .00000141  00000-0  26975-4 0  9991,2 53025  53.2168 234.2065 0001278  91.1660 268.9479 15.08840489 88980,6917.879,95.438,540.628,538.86,0.0
53025.0,STARLINK-4218,PAYLOAD,2024-02-13 18:50:52,15.08849807,0.0001387,53.2166,233.0187,84.561,275.554,2.4535e-05,1.03e-06,0.0,0 STARLINK-4218,1 53025U 22076AR  24044.78532608  .00000103  00000-0  24535-4 0  9992,2 53025  53.2166 233.0187 0001387  84.5610 275.5540 15.08849807 89495,6917.85,95.437,540.675,538.756,0.0
53025.0,STARLINK-4218,PAYLOAD,2024-02-14 12:20:05,15.08791766,0.000176,53.2171,229.7472,101.59,258.529,0.0010069,0.00015752,0.0,0 STARLINK-4218,1 53025U 22076AR  24045.51395763  .00015752  00000-0  10069-2 0  9994,2 53025  53.2171 229.7472 0001760 101.5900 258.5290 15.08791766 89603,6918.028,95.441,541.11,538.675,0.0
53025.0,STARLINK-4218,PAYLOAD,2024-02-14 18:41:37,15.08859494,0.0001341,53.2169,228.5563,93.9731,266.1415,0.00027943,4.164e-05,0.0,0 STARLINK-4218,1 53025U 22076AR  24045.77890809  .00004164  00000-0  27943-3 0  9998,2 53025  53.2169 228.5563 0001341  93.9731 266.1415 15.08859494 89640,6917.821,95.436,540.613,538.758,0.0
53025.0,STARLINK-4218,PAYLOAD,2024-02-14 21:52:23,15.08862861,0.000166,53.2169,227.9616,112.5068,247.61,0.00026258,3.896e-05,0.0,0 STARLINK-4218,1 53025U 22076AR  24045.91138560  .00003896  00000-0  26258-3 0  9992,2 53025  53.2169 227.9616 0001660 112.5068 247.6100 15.08862861 89194,6917.811,95.436,540.824,538.527,0.0
53025.0,STARLINK-4218,PAYLOAD,2024-02-15 18:32:25,15.08849932,0.0001327,53.2167,224.0955,93.2695,266.8449,7.4817e-06,-1.69e-06,0.0,0 STARLINK-4218,1 53025U 22076AR  24046.77251225 -.00000169  00000-0  74817-5 0  9998,2 53025  53.2167 224.0955 0001327  93.2695 266.8449 15.08849932 89796,6917.85,95.437,540.633,538.797,0.0
53025.0,STARLINK-4218,PAYLOAD,2024-02-16 18:23:12,15.08830801,0.000123,53.2152,219.6374,86.9255,273.1877,-0.00021773,-3.75e-05,0.0,0 STARLINK-4218,1 53025U 22076AR  24047.76612191 -.00003750  00000-0 -21773-3 0  9992,2 53025  53.2152 219.6374 0001230  86.9255 273.1877 15.08830801 89947,6917.909,95.438,540.624,538.923,0.0
53025.0,STARLINK-4218,PAYLOAD,2024-02-17 03:55:32,15.0883032,0.0001313,53.2151,217.8495,89.7015,270.4128,-0.00013109,-2.373e-05,0.0,0 STARLINK-4218,1 53025U 22076AR  24048.16356483 -.00002373  00000-0 -13109-3 0  9990,2 53025  53.2151 217.8495 0001313  89.7015 270.4128 15.08830320 89537,6917.91,95.438,540.683,538.867,0.0
53025.0,STARLINK-4218,PAYLOAD,2024-02-17 19:49:24,15.08829028,0.0001103,53.2176,214.8792,98.4706,261.6411,2.5273e-05,1.14e-06,0.0,0 STARLINK-4218,1 53025U 22076AR  24048.82597571  .00000114  00000-0  25273-4 0  9993,2 53025  53.2176 214.8792 0001103  98.4706 261.6411 15.08829028 90107,6917.914,95.438,540.542,539.016,0.0
53025.0,STARLINK-4218,PAYLOAD,2024-02-18 14:54:01,15.08840431,0.0001059,53.2164,211.3101,96.5061,263.6052,0.0003129,4.696e-05,0.0,0 STARLINK-4218,1 53025U 22076AR  24049.62085359  .00004696  00000-0  31290-3 0  9992,2 53025  53.2164 211.3101 0001059  96.5061 263.6052 15.08840431 89756,6917.879,95.438,540.477,539.011,0.0
53025.0,STARLINK-4218,PAYLOAD,2024-02-18 19:40:10,15.08851195,0.0001091,53.2161,210.4184,94.6972,265.4145,0.00052387,8.062e-05,0.0,0 STARLINK-4218,1 53025U 22076AR  24049.81957167  .00008062  00000-0  52387-3 0  9999,2 53025  53.2161 210.4184 0001091  94.6972 265.4145 15.08851195 90259,6917.846,95.437,540.466,538.956,0.0
53025.0,STARLINK-4218,PAYLOAD,2024-02-18 21:15:34,15.08854961,0.0001062,53.2157,210.1207,93.8052,266.3062,0.00062078,9.61e-05,0.0,0 STARLINK-4218,1 53025U 22076AR  24049.88581109  .00009610  00000-0  62078-3 0  9993,2 53025  53.2157 210.1207 0001062  93.8052 266.3062 15.08854961 89794,6917.835,95.437,540.434,538.965,0.0
53025.0,STARLINK-4218,PAYLOAD,2024-02-19 03:37:07,15.08841227,0.000123,53.2152,208.9268,84.3267,275.7865,0.00023138,3.397e-05,0.0,0 STARLINK-4218,1 53025U 22076AR  24050.15077548  .00003397  00000-0  23138-3 0  9992,2 53025  53.2152 208.9268 0001230  84.3267 275.7865 15.08841227 90306,6917.877,95.437,540.593,538.891,0.0
53025.0,STARLINK-4218,PAYLOAD,2024-02-19 14:44:49,15.08841321,0.0001299,53.2156,206.8494,89.6021,270.512,0.00017599,2.514e-05,0.0,0 STARLINK-4218,1 53025U 22076AR  24050.61445762  .00002514  00000-0  17599-3 0  9994,2 53025  53.2156 206.8494 0001299  89.6021 270.5120 15.08841321 89905,6917.876,95.437,540.64,538.843,0.0
53025.0,STARLINK-4218,PAYLOAD,2024-02-19 17:55:35,15.08841838,0.0001108,53.2156,206.2555,92.541,267.5709,0.00026617,3.951e-05,0.0,0 STARLINK-4218,1 53025U 22076AR  24050.74693610  .00003951  00000-0  26617-3 0  9992,2 53025  53.2156 206.2555 0001108  92.5410 267.5709 15.08841838 89925,6917.875,95.437,540.506,538.973,0.0
53025.0,STARLINK-4218,PAYLOAD,2024-02-20 03:27:54,15.08838391,0.0001011,53.2147,204.4704,87.7298,272.3809,0.00039356,5.981e-05,0.0,0 STARLINK-4218,1 53025U 22076AR  24051.14437834  .00005981  00000-0  39356-3 0  9990,2 53025  53.2147 204.4704 0001011  87.7298 272.3809 15.08838391 90459,6917.885,95.438,540.45,539.051,0.0
53025.0,STARLINK-4218,PAYLOAD,2024-02-20 14:35:36,15.08842263,0.0001109,53.2142,202.3885,86.2347,273.8772,0.00046528,7.125e-05,0.0,0 STARLINK-4218,1 53025U 22076AR  24051.60805916  .00007125  00000-0  46528-3 0  9992,2 53025  53.2142 202.3885 0001109  86.2347 273.8772 15.08842263 90052,6917.873,95.437,540.506,538.971,0.0
53025.0,STARLINK-4218,PAYLOAD,2024-02-20 19:21:45,15.08851585,0.0001102,53.2148,201.4965,86.4299,273.6819,0.00063938,9.906e-05,0.0,0 STARLINK-4218,1 53025U 22076AR  24051.80677693  .00009906  00000-0  63938-3 0  9996,2 53025  53.2148 201.4965 0001102  86.4299 273.6819 15.08851585 90088,6917.845,95.437,540.472,538.948,0.0
53025.0,STARLINK-4218,PAYLOAD,2024-02-21 14:26:23,15.08842131,0.0001132,53.2142,197.9274,89.3563,270.7559,0.00022806,3.344e-05,0.0,0 STARLINK-4218,1 53025U 22076AR  24052.60165954  .00003344  00000-0  22806-3 0  9996,2 53025  53.2142 197.9274 0001132  89.3563 270.7559 15.08842131 90203,6917.874,95.437,540.522,538.956,0.0
53025.0,STARLINK-4218,PAYLOAD,2024-02-21 16:01:46,15.08842373,0.0001177,53.2142,197.6301,88.113,271.9997,0.00022942,3.365e-05,0.0,0 STARLINK-4218,1 53025U 22076AR  24052.66789960  .00003365  00000-0  22942-3 0  9995,2 53025  53.2142 197.6301 0001177  88.1130 271.9997 15.08842373 90686,6917.873,95.437,540.552,538.924,0.0
53025.0,STARLINK-4218,PAYLOAD,2024-02-22 14:17:10,15.08842667,0.0001232,53.2155,193.4667,89.7002,270.4131,0.00015411,2.166e-05,0.0,0 STARLINK-4218,1 53025U 22076AR  24053.59526021  .00002166  00000-0  15411-3 0  9996,2 53025  53.2155 193.4667 0001232  89.7002 270.4131 15.08842667 90350,6917.872,95.437,540.59,538.885,0.0
53025.0,STARLINK-4218,PAYLOAD,2024-02-22 15:52:33,15.08844839,0.0001207,53.2162,193.1689,92.4955,267.6176,0.00019625,2.837e-05,0.0,0 STARLINK-4218,1 53025U 22076AR  24053.66149903  .00002837  00000-0  19625-3 0  9990,2 53025  53.2162 193.1689 0001207  92.4955 267.6176 15.08844839 90360,6917.866,95.437,540.566,538.896,0.0
